[{"OBJECT_NAME":"STARLINK-35921","OBJECT_ID":"2025-271Z","EPOCH":"2026-03-09T12:16:11.715744","MEAN_MOTION":15.3018855,"ECCENTRICITY":0.0001416,"INCLINATION":53.1593,"RA_OF_ASC_NODE":140.4565,"ARG_OF_PERICENTER":76.929,"MEAN_ANOMALY":283.1869,"EPHEMERIS_TYPE":0,"CLASSIFICATION_TYPE":"U","NORAD_CAT_ID":66640,"ELEMENT_SET_NO":999,"REV_AT_EPOCH":1754,"BSTAR":0.00073634109,"MEAN_MOTION_DOT":0.00021505,"MEAN_MOTION_DDOT":0},{"OBJECT_NAME":"COSMOS 1869","OBJECT_ID":"1987-062A","EPOCH":"2026-03-09T20:30:29.271744","MEAN_MOTION":15.35392408,"ECCENTRICITY":0.00185772,"INCLINATION":82.5127,"RA_OF_ASC_NODE":201.6716,"ARG_OF_PERICENTER":61.4986,"MEAN_ANOMALY":298.8125,"EPHEMERIS_TYPE":0,"CLASSIFICATION_TYPE":"U","NORAD_CAT_ID":18214,"ELEMENT_SET_NO":999,"REV_AT_EPOCH":8931,"BSTAR":0.00042037944,"MEAN_MOTION_DOT":0.00014573,"MEAN_MOTION_DDOT":0}]
